{
"type": "FeatureCollection",
"name": "facilities",
"crs": { "type": "name", "properties": { "name": "urn:ogc:def:crs:OGC:1.3:CRS84" } },
"features": [
{ "type": "Feature", "properties": { "name": "McMurdo Station", "nation": "USA", "status": "Open", "facility_type": "Station", "latitude": -77.851, "longitude": 166.668, "activity_type": "permanent_station", "duration": "permanent", "year": 2024, "source": "COMNAP Antarctic Facilities List v3.5.0 (2024)", "citation": "COMNAP (2024). Antarctic Facilities List, Version 3.5.0. Council of Managers of National Antarctic Programs. https://www.comnap.aq/antarctic-facilities-information" }, "geometry": { "type": "Point", "coordinates": [ 166.668, -77.851 ] } },
{ "type": "Feature", "properties": { "name": "Amundsen-Scott South Pole Station", "nation": "USA", "status": "Open", "facility_type": "Station", "latitude": -90.0, "longitude": 0.0, "activity_type": "permanent_station", "duration": "permanent", "year": 2024, "source": "COMNAP Antarctic Facilities List v3.5.0 (2024)", "citation": "COMNAP (2024). Antarctic Facilities List, Version 3.5.0. Council of Managers of National Antarctic Programs. https://www.comnap.aq/antarctic-facilities-information" }, "geometry": { "type": "Point", "coordinates": [ 0.0, -90.0 ] } },
{ "type": "Feature", "properties": { "name": "Palmer Station", "nation": "USA", "status": "Open", "facility_type": "Station", "latitude": -64.774, "longitude": -64.053, "activity_type": "permanent_station", "duration": "permanent", "year": 2024, "source": "COMNAP Antarctic Facilities List v3.5.0 (2024)", "citation": "COMNAP (2024). Antarctic Facilities List, Version 3.5.0. Council of Managers of National Antarctic Programs. https://www.comnap.aq/antarctic-facilities-information" }, "geometry": { "type": "Point", "coordinates": [ -64.053, -64.774 ] } },
{ "type": "Feature", "properties": { "name": "Concordia Station", "nation": "France/Italy", "status": "Open", "facility_type": "Station", "latitude": -75.1, "longitude": 123.35, "activity_type": "permanent_station", "duration": "permanent", "year": 2024, "source": "COMNAP Antarctic Facilities List v3.5.0 (2024)", "citation": "COMNAP (2024). Antarctic Facilities List, Version 3.5.0. Council of Managers of National Antarctic Programs. https://www.comnap.aq/antarctic-facilities-information" }, "geometry": { "type": "Point", "coordinates": [ 123.35, -75.1 ] } },
{ "type": "Feature", "properties": { "name": "Dumont d'Urville", "nation": "France", "status": "Open", "facility_type": "Station", "latitude": -66.663, "longitude": 140.001, "activity_type": "permanent_station", "duration": "permanent", "year": 2024, "source": "COMNAP Antarctic Facilities List v3.5.0 (2024)", "citation": "COMNAP (2024). Antarctic Facilities List, Version 3.5.0. Council of Managers of National Antarctic Programs. https://www.comnap.aq/antarctic-facilities-information" }, "geometry": { "type": "Point", "coordinates": [ 140.001, -66.663 ] } },
{ "type": "Feature", "properties": { "name": "Rothera Research Station", "nation": "UK", "status": "Open", "facility_type": "Station", "latitude": -67.567, "longitude": -68.125, "activity_type": "permanent_station", "duration": "permanent", "year": 2024, "source": "COMNAP Antarctic Facilities List v3.5.0 (2024)", "citation": "COMNAP (2024). Antarctic Facilities List, Version 3.5.0. Council of Managers of National Antarctic Programs. https://www.comnap.aq/antarctic-facilities-information" }, "geometry": { "type": "Point", "coordinates": [ -68.125, -67.567 ] } },
{ "type": "Feature", "properties": { "name": "Halley VI Research Station", "nation": "UK", "status": "Open", "facility_type": "Station", "latitude": -75.58, "longitude": -25.5, "activity_type": "permanent_station", "duration": "permanent", "year": 2024, "source": "COMNAP Antarctic Facilities List v3.5.0 (2024)", "citation": "COMNAP (2024). Antarctic Facilities List, Version 3.5.0. Council of Managers of National Antarctic Programs. https://www.comnap.aq/antarctic-facilities-information" }, "geometry": { "type": "Point", "coordinates": [ -25.5, -75.58 ] } },
{ "type": "Feature", "properties": { "name": "Bird Island Research Station", "nation": "UK", "status": "Open", "facility_type": "Station", "latitude": -54.0, "longitude": -38.05, "activity_type": "permanent_station", "duration": "permanent", "year": 2024, "source": "COMNAP Antarctic Facilities List v3.5.0 (2024)", "citation": "COMNAP (2024). Antarctic Facilities List, Version 3.5.0. Council of Managers of National Antarctic Programs. https://www.comnap.aq/antarctic-facilities-information" }, "geometry": { "type": "Point", "coordinates": [ -38.05, -54.0 ] } },
{ "type": "Feature", "properties": { "name": "King Edward Point", "nation": "UK", "status": "Open", "facility_type": "Station", "latitude": -54.283, "longitude": -36.5, "activity_type": "permanent_station", "duration": "permanent", "year": 2024, "source": "COMNAP Antarctic Facilities List v3.5.0 (2024)", "citation": "COMNAP (2024). Antarctic Facilities List, Version 3.5.0. Council of Managers of National Antarctic Programs. https://www.comnap.aq/antarctic-facilities-information" }, "geometry": { "type": "Point", "coordinates": [ -36.5, -54.283 ] } },
{ "type": "Feature", "properties": { "name": "Signy Research Station", "nation": "UK", "status": "Temporarily Closed", "facility_type": "Station", "latitude": -60.7, "longitude": -45.6, "activity_type": "permanent_station", "duration": "permanent", "year": 2024, "source": "COMNAP Antarctic Facilities List v3.5.0 (2024)", "citation": "COMNAP (2024). Antarctic Facilities List, Version 3.5.0. Council of Managers of National Antarctic Programs. https://www.comnap.aq/antarctic-facilities-information" }, "geometry": { "type": "Point", "coordinates": [ -45.6, -60.7 ] } },
{ "type": "Feature", "properties": { "name": "Neumayer Station III", "nation": "Germany", "status": "Open", "facility_type": "Station", "latitude": -70.683, "longitude": -8.267, "activity_type": "permanent_station", "duration": "permanent", "year": 2024, "source": "COMNAP Antarctic Facilities List v3.5.0 (2024)", "citation": "COMNAP (2024). Antarctic Facilities List, Version 3.5.0. Council of Managers of National Antarctic Programs. https://www.comnap.aq/antarctic-facilities-information" }, "geometry": { "type": "Point", "coordinates": [ -8.267, -70.683 ] } },
{ "type": "Feature", "properties": { "name": "Kohnen Station", "nation": "Germany", "status": "Open", "facility_type": "Summer", "latitude": -75.0, "longitude": 0.067, "activity_type": "summer_facility", "duration": "transient", "year": 2024, "source": "COMNAP Antarctic Facilities List v3.5.0 (2024)", "citation": "COMNAP (2024). Antarctic Facilities List, Version 3.5.0. Council of Managers of National Antarctic Programs. https://www.comnap.aq/antarctic-facilities-information" }, "geometry": { "type": "Point", "coordinates": [ 0.067, -75.0 ] } },
{ "type": "Feature", "properties": { "name": "Mawson Station", "nation": "Australia", "status": "Open", "facility_type": "Station", "latitude": -67.6, "longitude": 62.883, "activity_type": "permanent_station", "duration": "permanent", "year": 2024, "source": "COMNAP Antarctic Facilities List v3.5.0 (2024)", "citation": "COMNAP (2024). Antarctic Facilities List, Version 3.5.0. Council of Managers of National Antarctic Programs. https://www.comnap.aq/antarctic-facilities-information" }, "geometry": { "type": "Point", "coordinates": [ 62.883, -67.6 ] } },
{ "type": "Feature", "properties": { "name": "Davis Station", "nation": "Australia", "status": "Open", "facility_type": "Station", "latitude": -68.577, "longitude": 77.972, "activity_type": "permanent_station", "duration": "permanent", "year": 2024, "source": "COMNAP Antarctic Facilities List v3.5.0 (2024)", "citation": "COMNAP (2024). Antarctic Facilities List, Version 3.5.0. Council of Managers of National Antarctic Programs. https://www.comnap.aq/antarctic-facilities-information" }, "geometry": { "type": "Point", "coordinates": [ 77.972, -68.577 ] } },
{ "type": "Feature", "properties": { "name": "Casey Station", "nation": "Australia", "status": "Open", "facility_type": "Station", "latitude": -66.283, "longitude": 110.527, "activity_type": "permanent_station", "duration": "permanent", "year": 2024, "source": "COMNAP Antarctic Facilities List v3.5.0 (2024)", "citation": "COMNAP (2024). Antarctic Facilities List, Version 3.5.0. Council of Managers of National Antarctic Programs. https://www.comnap.aq/antarctic-facilities-information" }, "geometry": { "type": "Point", "coordinates": [ 110.527, -66.283 ] } },
{ "type": "Feature", "properties": { "name": "Macquarie Island Station", "nation": "Australia", "status": "Open", "facility_type": "Station", "latitude": -54.5, "longitude": 158.95, "activity_type": "permanent_station", "duration": "permanent", "year": 2024, "source": "COMNAP Antarctic Facilities List v3.5.0 (2024)", "citation": "COMNAP (2024). Antarctic Facilities List, Version 3.5.0. Council of Managers of National Antarctic Programs. https://www.comnap.aq/antarctic-facilities-information" }, "geometry": { "type": "Point", "coordinates": [ 158.95, -54.5 ] } },
{ "type": "Feature", "properties": { "name": "Scott Base", "nation": "New Zealand", "status": "Open", "facility_type": "Station", "latitude": -77.849, "longitude": 166.768, "activity_type": "permanent_station", "duration": "permanent", "year": 2024, "source": "COMNAP Antarctic Facilities List v3.5.0 (2024)", "citation": "COMNAP (2024). Antarctic Facilities List, Version 3.5.0. Council of Managers of National Antarctic Programs. https://www.comnap.aq/antarctic-facilities-information" }, "geometry": { "type": "Point", "coordinates": [ 166.768, -77.849 ] } },
{ "type": "Feature", "properties": { "name": "Mario Zucchelli Station", "nation": "Italy", "status": "Open", "facility_type": "Summer", "latitude": -74.696, "longitude": 164.117, "activity_type": "summer_facility", "duration": "transient", "year": 2024, "source": "COMNAP Antarctic Facilities List v3.5.0 (2024)", "citation": "COMNAP (2024). Antarctic Facilities List, Version 3.5.0. Council of Managers of National Antarctic Programs. https://www.comnap.aq/antarctic-facilities-information" }, "geometry": { "type": "Point", "coordinates": [ 164.117, -74.696 ] } },
{ "type": "Feature", "properties": { "name": "Zucchelli Station (Ross Sea)", "nation": "Italy", "status": "Open", "facility_type": "Summer", "latitude": -74.696, "longitude": 164.117, "activity_type": "summer_facility", "duration": "transient", "year": 2024, "source": "COMNAP Antarctic Facilities List v3.5.0 (2024)", "citation": "COMNAP (2024). Antarctic Facilities List, Version 3.5.0. Council of Managers of National Antarctic Programs. https://www.comnap.aq/antarctic-facilities-information" }, "geometry": { "type": "Point", "coordinates": [ 164.117, -74.696 ] } },
{ "type": "Feature", "properties": { "name": "Concordia (IPEV/PNRA)", "nation": "France/Italy", "status": "Open", "facility_type": "Station", "latitude": -75.1, "longitude": 123.35, "activity_type": "permanent_station", "duration": "permanent", "year": 2024, "source": "COMNAP Antarctic Facilities List v3.5.0 (2024)", "citation": "COMNAP (2024). Antarctic Facilities List, Version 3.5.0. Council of Managers of National Antarctic Programs. https://www.comnap.aq/antarctic-facilities-information" }, "geometry": { "type": "Point", "coordinates": [ 123.35, -75.1 ] } },
{ "type": "Feature", "properties": { "name": "Princess Elisabeth Antarctica", "nation": "Belgium", "status": "Open", "facility_type": "Summer", "latitude": -71.95, "longitude": 23.35, "activity_type": "summer_facility", "duration": "transient", "year": 2024, "source": "COMNAP Antarctic Facilities List v3.5.0 (2024)", "citation": "COMNAP (2024). Antarctic Facilities List, Version 3.5.0. Council of Managers of National Antarctic Programs. https://www.comnap.aq/antarctic-facilities-information" }, "geometry": { "type": "Point", "coordinates": [ 23.35, -71.95 ] } },
{ "type": "Feature", "properties": { "name": "Troll Station", "nation": "Norway", "status": "Open", "facility_type": "Station", "latitude": -72.017, "longitude": 2.533, "activity_type": "permanent_station", "duration": "permanent", "year": 2024, "source": "COMNAP Antarctic Facilities List v3.5.0 (2024)", "citation": "COMNAP (2024). Antarctic Facilities List, Version 3.5.0. Council of Managers of National Antarctic Programs. https://www.comnap.aq/antarctic-facilities-information" }, "geometry": { "type": "Point", "coordinates": [ 2.533, -72.017 ] } },
{ "type": "Feature", "properties": { "name": "Tor Station", "nation": "Norway", "status": "Open", "facility_type": "Summer", "latitude": -71.9, "longitude": 5.167, "activity_type": "summer_facility", "duration": "transient", "year": 2024, "source": "COMNAP Antarctic Facilities List v3.5.0 (2024)", "citation": "COMNAP (2024). Antarctic Facilities List, Version 3.5.0. Council of Managers of National Antarctic Programs. https://www.comnap.aq/antarctic-facilities-information" }, "geometry": { "type": "Point", "coordinates": [ 5.167, -71.9 ] } },
{ "type": "Feature", "properties": { "name": "SANAE IV", "nation": "South Africa", "status": "Open", "facility_type": "Station", "latitude": -71.683, "longitude": -2.85, "activity_type": "permanent_station", "duration": "permanent", "year": 2024, "source": "COMNAP Antarctic Facilities List v3.5.0 (2024)", "citation": "COMNAP (2024). Antarctic Facilities List, Version 3.5.0. Council of Managers of National Antarctic Programs. https://www.comnap.aq/antarctic-facilities-information" }, "geometry": { "type": "Point", "coordinates": [ -2.85, -71.683 ] } },
{ "type": "Feature", "properties": { "name": "GARS O'Higgins", "nation": "Germany", "status": "Open", "facility_type": "Station", "latitude": -63.317, "longitude": -57.9, "activity_type": "permanent_station", "duration": "permanent", "year": 2024, "source": "COMNAP Antarctic Facilities List v3.5.0 (2024)", "citation": "COMNAP (2024). Antarctic Facilities List, Version 3.5.0. Council of Managers of National Antarctic Programs. https://www.comnap.aq/antarctic-facilities-information" }, "geometry": { "type": "Point", "coordinates": [ -57.9, -63.317 ] } },
{ "type": "Feature", "properties": { "name": "Artigas Station", "nation": "Uruguay", "status": "Open", "facility_type": "Station", "latitude": -62.183, "longitude": -58.9, "activity_type": "permanent_station", "duration": "permanent", "year": 2024, "source": "COMNAP Antarctic Facilities List v3.5.0 (2024)", "citation": "COMNAP (2024). Antarctic Facilities List, Version 3.5.0. Council of Managers of National Antarctic Programs. https://www.comnap.aq/antarctic-facilities-information" }, "geometry": { "type": "Point", "coordinates": [ -58.9, -62.183 ] } },
{ "type": "Feature", "properties": { "name": "Carlini Station", "nation": "Argentina", "status": "Open", "facility_type": "Station", "latitude": -62.234, "longitude": -58.668, "activity_type": "permanent_station", "duration": "permanent", "year": 2024, "source": "COMNAP Antarctic Facilities List v3.5.0 (2024)", "citation": "COMNAP (2024). Antarctic Facilities List, Version 3.5.0. Council of Managers of National Antarctic Programs. https://www.comnap.aq/antarctic-facilities-information" }, "geometry": { "type": "Point", "coordinates": [ -58.668, -62.234 ] } },
{ "type": "Feature", "properties": { "name": "Jubany/Carlini", "nation": "Argentina", "status": "Open", "facility_type": "Station", "latitude": -62.234, "longitude": -58.668, "activity_type": "permanent_station", "duration": "permanent", "year": 2024, "source": "COMNAP Antarctic Facilities List v3.5.0 (2024)", "citation": "COMNAP (2024). Antarctic Facilities List, Version 3.5.0. Council of Managers of National Antarctic Programs. https://www.comnap.aq/antarctic-facilities-information" }, "geometry": { "type": "Point", "coordinates": [ -58.668, -62.234 ] } },
{ "type": "Feature", "properties": { "name": "Marambio Station", "nation": "Argentina", "status": "Open", "facility_type": "Station", "latitude": -64.233, "longitude": -56.717, "activity_type": "permanent_station", "duration": "permanent", "year": 2024, "source": "COMNAP Antarctic Facilities List v3.5.0 (2024)", "citation": "COMNAP (2024). Antarctic Facilities List, Version 3.5.0. Council of Managers of National Antarctic Programs. https://www.comnap.aq/antarctic-facilities-information" }, "geometry": { "type": "Point", "coordinates": [ -56.717, -64.233 ] } },
{ "type": "Feature", "properties": { "name": "San Martín Station", "nation": "Argentina", "status": "Open", "facility_type": "Station", "latitude": -68.133, "longitude": -67.1, "activity_type": "permanent_station", "duration": "permanent", "year": 2024, "source": "COMNAP Antarctic Facilities List v3.5.0 (2024)", "citation": "COMNAP (2024). Antarctic Facilities List, Version 3.5.0. Council of Managers of National Antarctic Programs. https://www.comnap.aq/antarctic-facilities-information" }, "geometry": { "type": "Point", "coordinates": [ -67.1, -68.133 ] } },
{ "type": "Feature", "properties": { "name": "Belgrano II Station", "nation": "Argentina", "status": "Open", "facility_type": "Station", "latitude": -77.867, "longitude": -34.633, "activity_type": "permanent_station", "duration": "permanent", "year": 2024, "source": "COMNAP Antarctic Facilities List v3.5.0 (2024)", "citation": "COMNAP (2024). Antarctic Facilities List, Version 3.5.0. Council of Managers of National Antarctic Programs. https://www.comnap.aq/antarctic-facilities-information" }, "geometry": { "type": "Point", "coordinates": [ -34.633, -77.867 ] } },
{ "type": "Feature", "properties": { "name": "Esperanza Station", "nation": "Argentina", "status": "Open", "facility_type": "Station", "latitude": -63.4, "longitude": -56.983, "activity_type": "permanent_station", "duration": "permanent", "year": 2024, "source": "COMNAP Antarctic Facilities List v3.5.0 (2024)", "citation": "COMNAP (2024). Antarctic Facilities List, Version 3.5.0. Council of Managers of National Antarctic Programs. https://www.comnap.aq/antarctic-facilities-information" }, "geometry": { "type": "Point", "coordinates": [ -56.983, -63.4 ] } },
{ "type": "Feature", "properties": { "name": "Orcadas Station", "nation": "Argentina", "status": "Open", "facility_type": "Station", "latitude": -60.733, "longitude": -44.733, "activity_type": "permanent_station", "duration": "permanent", "year": 2024, "source": "COMNAP Antarctic Facilities List v3.5.0 (2024)", "citation": "COMNAP (2024). Antarctic Facilities List, Version 3.5.0. Council of Managers of National Antarctic Programs. https://www.comnap.aq/antarctic-facilities-information" }, "geometry": { "type": "Point", "coordinates": [ -44.733, -60.733 ] } },
{ "type": "Feature", "properties": { "name": "Gabriel de Castilla Station", "nation": "Spain", "status": "Open", "facility_type": "Summer", "latitude": -62.983, "longitude": -60.683, "activity_type": "summer_facility", "duration": "transient", "year": 2024, "source": "COMNAP Antarctic Facilities List v3.5.0 (2024)", "citation": "COMNAP (2024). Antarctic Facilities List, Version 3.5.0. Council of Managers of National Antarctic Programs. https://www.comnap.aq/antarctic-facilities-information" }, "geometry": { "type": "Point", "coordinates": [ -60.683, -62.983 ] } },
{ "type": "Feature", "properties": { "name": "Juan Carlos I Station", "nation": "Spain", "status": "Open", "facility_type": "Summer", "latitude": -62.663, "longitude": -60.383, "activity_type": "summer_facility", "duration": "transient", "year": 2024, "source": "COMNAP Antarctic Facilities List v3.5.0 (2024)", "citation": "COMNAP (2024). Antarctic Facilities List, Version 3.5.0. Council of Managers of National Antarctic Programs. https://www.comnap.aq/antarctic-facilities-information" }, "geometry": { "type": "Point", "coordinates": [ -60.383, -62.663 ] } },
{ "type": "Feature", "properties": { "name": "Eduardo Frei Station", "nation": "Chile", "status": "Open", "facility_type": "Station", "latitude": -62.2, "longitude": -58.967, "activity_type": "permanent_station", "duration": "permanent", "year": 2024, "source": "COMNAP Antarctic Facilities List v3.5.0 (2024)", "citation": "COMNAP (2024). Antarctic Facilities List, Version 3.5.0. Council of Managers of National Antarctic Programs. https://www.comnap.aq/antarctic-facilities-information" }, "geometry": { "type": "Point", "coordinates": [ -58.967, -62.2 ] } },
{ "type": "Feature", "properties": { "name": "Arturo Prat Station", "nation": "Chile", "status": "Open", "facility_type": "Station", "latitude": -62.5, "longitude": -59.683, "activity_type": "permanent_station", "duration": "permanent", "year": 2024, "source": "COMNAP Antarctic Facilities List v3.5.0 (2024)", "citation": "COMNAP (2024). Antarctic Facilities List, Version 3.5.0. Council of Managers of National Antarctic Programs. https://www.comnap.aq/antarctic-facilities-information" }, "geometry": { "type": "Point", "coordinates": [ -59.683, -62.5 ] } },
{ "type": "Feature", "properties": { "name": "Bernardo O'Higgins Station", "nation": "Chile", "status": "Open", "facility_type": "Station", "latitude": -63.317, "longitude": -57.9, "activity_type": "permanent_station", "duration": "permanent", "year": 2024, "source": "COMNAP Antarctic Facilities List v3.5.0 (2024)", "citation": "COMNAP (2024). Antarctic Facilities List, Version 3.5.0. Council of Managers of National Antarctic Programs. https://www.comnap.aq/antarctic-facilities-information" }, "geometry": { "type": "Point", "coordinates": [ -57.9, -63.317 ] } },
{ "type": "Feature", "properties": { "name": "General Bernardo O'Higgins", "nation": "Chile", "status": "Open", "facility_type": "Station", "latitude": -63.317, "longitude": -57.9, "activity_type": "permanent_station", "duration": "permanent", "year": 2024, "source": "COMNAP Antarctic Facilities List v3.5.0 (2024)", "citation": "COMNAP (2024). Antarctic Facilities List, Version 3.5.0. Council of Managers of National Antarctic Programs. https://www.comnap.aq/antarctic-facilities-information" }, "geometry": { "type": "Point", "coordinates": [ -57.9, -63.317 ] } },
{ "type": "Feature", "properties": { "name": "Escudero Station", "nation": "Chile", "status": "Open", "facility_type": "Summer", "latitude": -62.2, "longitude": -58.933, "activity_type": "summer_facility", "duration": "transient", "year": 2024, "source": "COMNAP Antarctic Facilities List v3.5.0 (2024)", "citation": "COMNAP (2024). Antarctic Facilities List, Version 3.5.0. Council of Managers of National Antarctic Programs. https://www.comnap.aq/antarctic-facilities-information" }, "geometry": { "type": "Point", "coordinates": [ -58.933, -62.2 ] } },
{ "type": "Feature", "properties": { "name": "Glaciología Station", "nation": "Chile", "status": "Open", "facility_type": "Summer", "latitude": -62.2, "longitude": -59.0, "activity_type": "summer_facility", "duration": "transient", "year": 2024, "source": "COMNAP Antarctic Facilities List v3.5.0 (2024)", "citation": "COMNAP (2024). Antarctic Facilities List, Version 3.5.0. Council of Managers of National Antarctic Programs. https://www.comnap.aq/antarctic-facilities-information" }, "geometry": { "type": "Point", "coordinates": [ -59.0, -62.2 ] } },
{ "type": "Feature", "properties": { "name": "King Sejong Station", "nation": "South Korea", "status": "Open", "facility_type": "Station", "latitude": -62.217, "longitude": -58.783, "activity_type": "permanent_station", "duration": "permanent", "year": 2024, "source": "COMNAP Antarctic Facilities List v3.5.0 (2024)", "citation": "COMNAP (2024). Antarctic Facilities List, Version 3.5.0. Council of Managers of National Antarctic Programs. https://www.comnap.aq/antarctic-facilities-information" }, "geometry": { "type": "Point", "coordinates": [ -58.783, -62.217 ] } },
{ "type": "Feature", "properties": { "name": "Jang Bogo Station", "nation": "South Korea", "status": "Open", "facility_type": "Station", "latitude": -74.623, "longitude": 164.229, "activity_type": "permanent_station", "duration": "permanent", "year": 2024, "source": "COMNAP Antarctic Facilities List v3.5.0 (2024)", "citation": "COMNAP (2024). Antarctic Facilities List, Version 3.5.0. Council of Managers of National Antarctic Programs. https://www.comnap.aq/antarctic-facilities-information" }, "geometry": { "type": "Point", "coordinates": [ 164.229, -74.623 ] } },
{ "type": "Feature", "properties": { "name": "Great Wall Station", "nation": "China", "status": "Open", "facility_type": "Station", "latitude": -62.217, "longitude": -58.967, "activity_type": "permanent_station", "duration": "permanent", "year": 2024, "source": "COMNAP Antarctic Facilities List v3.5.0 (2024)", "citation": "COMNAP (2024). Antarctic Facilities List, Version 3.5.0. Council of Managers of National Antarctic Programs. https://www.comnap.aq/antarctic-facilities-information" }, "geometry": { "type": "Point", "coordinates": [ -58.967, -62.217 ] } },
{ "type": "Feature", "properties": { "name": "Zhongshan Station", "nation": "China", "status": "Open", "facility_type": "Station", "latitude": -69.373, "longitude": 76.377, "activity_type": "permanent_station", "duration": "permanent", "year": 2024, "source": "COMNAP Antarctic Facilities List v3.5.0 (2024)", "citation": "COMNAP (2024). Antarctic Facilities List, Version 3.5.0. Council of Managers of National Antarctic Programs. https://www.comnap.aq/antarctic-facilities-information" }, "geometry": { "type": "Point", "coordinates": [ 76.377, -69.373 ] } },
{ "type": "Feature", "properties": { "name": "Kunlun Station", "nation": "China", "status": "Open", "facility_type": "Summer", "latitude": -80.418, "longitude": 77.119, "activity_type": "summer_facility", "duration": "transient", "year": 2024, "source": "COMNAP Antarctic Facilities List v3.5.0 (2024)", "citation": "COMNAP (2024). Antarctic Facilities List, Version 3.5.0. Council of Managers of National Antarctic Programs. https://www.comnap.aq/antarctic-facilities-information" }, "geometry": { "type": "Point", "coordinates": [ 77.119, -80.418 ] } },
{ "type": "Feature", "properties": { "name": "Taishan Station", "nation": "China", "status": "Open", "facility_type": "Summer", "latitude": -73.867, "longitude": 76.967, "activity_type": "summer_facility", "duration": "transient", "year": 2024, "source": "COMNAP Antarctic Facilities List v3.5.0 (2024)", "citation": "COMNAP (2024). Antarctic Facilities List, Version 3.5.0. Council of Managers of National Antarctic Programs. https://www.comnap.aq/antarctic-facilities-information" }, "geometry": { "type": "Point", "coordinates": [ 76.967, -73.867 ] } },
{ "type": "Feature", "properties": { "name": "Qinling Station", "nation": "China", "status": "Open", "facility_type": "Station", "latitude": -73.5, "longitude": 163.7, "activity_type": "permanent_station", "duration": "permanent", "year": 2024, "source": "COMNAP Antarctic Facilities List v3.5.0 (2024)", "citation": "COMNAP (2024). Antarctic Facilities List, Version 3.5.0. Council of Managers of National Antarctic Programs. https://www.comnap.aq/antarctic-facilities-information" }, "geometry": { "type": "Point", "coordinates": [ 163.7, -73.5 ] } },
{ "type": "Feature", "properties": { "name": "Progress Station", "nation": "Russia", "status": "Open", "facility_type": "Station", "latitude": -69.383, "longitude": 76.383, "activity_type": "permanent_station", "duration": "permanent", "year": 2024, "source": "COMNAP Antarctic Facilities List v3.5.0 (2024)", "citation": "COMNAP (2024). Antarctic Facilities List, Version 3.5.0. Council of Managers of National Antarctic Programs. https://www.comnap.aq/antarctic-facilities-information" }, "geometry": { "type": "Point", "coordinates": [ 76.383, -69.383 ] } },
{ "type": "Feature", "properties": { "name": "Mirny Station", "nation": "Russia", "status": "Open", "facility_type": "Station", "latitude": -66.55, "longitude": 93.017, "activity_type": "permanent_station", "duration": "permanent", "year": 2024, "source": "COMNAP Antarctic Facilities List v3.5.0 (2024)", "citation": "COMNAP (2024). Antarctic Facilities List, Version 3.5.0. Council of Managers of National Antarctic Programs. https://www.comnap.aq/antarctic-facilities-information" }, "geometry": { "type": "Point", "coordinates": [ 93.017, -66.55 ] } },
{ "type": "Feature", "properties": { "name": "Vostok Station", "nation": "Russia", "status": "Open", "facility_type": "Station", "latitude": -78.467, "longitude": 106.833, "activity_type": "permanent_station", "duration": "permanent", "year": 2024, "source": "COMNAP Antarctic Facilities List v3.5.0 (2024)", "citation": "COMNAP (2024). Antarctic Facilities List, Version 3.5.0. Council of Managers of National Antarctic Programs. https://www.comnap.aq/antarctic-facilities-information" }, "geometry": { "type": "Point", "coordinates": [ 106.833, -78.467 ] } },
{ "type": "Feature", "properties": { "name": "Novolazarevskaya Station", "nation": "Russia", "status": "Open", "facility_type": "Station", "latitude": -70.767, "longitude": 11.833, "activity_type": "permanent_station", "duration": "permanent", "year": 2024, "source": "COMNAP Antarctic Facilities List v3.5.0 (2024)", "citation": "COMNAP (2024). Antarctic Facilities List, Version 3.5.0. Council of Managers of National Antarctic Programs. https://www.comnap.aq/antarctic-facilities-information" }, "geometry": { "type": "Point", "coordinates": [ 11.833, -70.767 ] } },
{ "type": "Feature", "properties": { "name": "Bellingshausen Station", "nation": "Russia", "status": "Open", "facility_type": "Station", "latitude": -62.2, "longitude": -58.967, "activity_type": "permanent_station", "duration": "permanent", "year": 2024, "source": "COMNAP Antarctic Facilities List v3.5.0 (2024)", "citation": "COMNAP (2024). Antarctic Facilities List, Version 3.5.0. Council of Managers of National Antarctic Programs. https://www.comnap.aq/antarctic-facilities-information" }, "geometry": { "type": "Point", "coordinates": [ -58.967, -62.2 ] } },
{ "type": "Feature", "properties": { "name": "Molodezhnaya Station", "nation": "Russia", "status": "Temporarily Closed", "facility_type": "Station", "latitude": -67.667, "longitude": 45.85, "activity_type": "permanent_station", "duration": "permanent", "year": 2024, "source": "COMNAP Antarctic Facilities List v3.5.0 (2024)", "citation": "COMNAP (2024). Antarctic Facilities List, Version 3.5.0. Council of Managers of National Antarctic Programs. https://www.comnap.aq/antarctic-facilities-information" }, "geometry": { "type": "Point", "coordinates": [ 45.85, -67.667 ] } },
{ "type": "Feature", "properties": { "name": "Leningradskaya Station", "nation": "Russia", "status": "Temporarily Closed", "facility_type": "Station", "latitude": -69.5, "longitude": 159.383, "activity_type": "permanent_station", "duration": "permanent", "year": 2024, "source": "COMNAP Antarctic Facilities List v3.5.0 (2024)", "citation": "COMNAP (2024). Antarctic Facilities List, Version 3.5.0. Council of Managers of National Antarctic Programs. https://www.comnap.aq/antarctic-facilities-information" }, "geometry": { "type": "Point", "coordinates": [ 159.383, -69.5 ] } },
{ "type": "Feature", "properties": { "name": "Concordia (subglacial lake)", "nation": "Russia", "status": "Open", "facility_type": "Summer", "latitude": -78.467, "longitude": 106.833, "activity_type": "summer_facility", "duration": "transient", "year": 2024, "source": "COMNAP Antarctic Facilities List v3.5.0 (2024)", "citation": "COMNAP (2024). Antarctic Facilities List, Version 3.5.0. Council of Managers of National Antarctic Programs. https://www.comnap.aq/antarctic-facilities-information" }, "geometry": { "type": "Point", "coordinates": [ 106.833, -78.467 ] } },
{ "type": "Feature", "properties": { "name": "Syowa Station", "nation": "Japan", "status": "Open", "facility_type": "Station", "latitude": -69.003, "longitude": 39.59, "activity_type": "permanent_station", "duration": "permanent", "year": 2024, "source": "COMNAP Antarctic Facilities List v3.5.0 (2024)", "citation": "COMNAP (2024). Antarctic Facilities List, Version 3.5.0. Council of Managers of National Antarctic Programs. https://www.comnap.aq/antarctic-facilities-information" }, "geometry": { "type": "Point", "coordinates": [ 39.59, -69.003 ] } },
{ "type": "Feature", "properties": { "name": "Dome Fuji Station", "nation": "Japan", "status": "Open", "facility_type": "Summer", "latitude": -77.317, "longitude": 39.7, "activity_type": "summer_facility", "duration": "transient", "year": 2024, "source": "COMNAP Antarctic Facilities List v3.5.0 (2024)", "citation": "COMNAP (2024). Antarctic Facilities List, Version 3.5.0. Council of Managers of National Antarctic Programs. https://www.comnap.aq/antarctic-facilities-information" }, "geometry": { "type": "Point", "coordinates": [ 39.7, -77.317 ] } },
{ "type": "Feature", "properties": { "name": "Bharati Station", "nation": "India", "status": "Open", "facility_type": "Station", "latitude": -69.407, "longitude": 76.192, "activity_type": "permanent_station", "duration": "permanent", "year": 2024, "source": "COMNAP Antarctic Facilities List v3.5.0 (2024)", "citation": "COMNAP (2024). Antarctic Facilities List, Version 3.5.0. Council of Managers of National Antarctic Programs. https://www.comnap.aq/antarctic-facilities-information" }, "geometry": { "type": "Point", "coordinates": [ 76.192, -69.407 ] } },
{ "type": "Feature", "properties": { "name": "Maitri Station", "nation": "India", "status": "Open", "facility_type": "Station", "latitude": -70.767, "longitude": 11.733, "activity_type": "permanent_station", "duration": "permanent", "year": 2024, "source": "COMNAP Antarctic Facilities List v3.5.0 (2024)", "citation": "COMNAP (2024). Antarctic Facilities List, Version 3.5.0. Council of Managers of National Antarctic Programs. https://www.comnap.aq/antarctic-facilities-information" }, "geometry": { "type": "Point", "coordinates": [ 11.733, -70.767 ] } },
{ "type": "Feature", "properties": { "name": "MIRI Station", "nation": "India", "status": "Open", "facility_type": "Summer", "latitude": -70.767, "longitude": 11.733, "activity_type": "summer_facility", "duration": "transient", "year": 2024, "source": "COMNAP Antarctic Facilities List v3.5.0 (2024)", "citation": "COMNAP (2024). Antarctic Facilities List, Version 3.5.0. Council of Managers of National Antarctic Programs. https://www.comnap.aq/antarctic-facilities-information" }, "geometry": { "type": "Point", "coordinates": [ 11.733, -70.767 ] } },
{ "type": "Feature", "properties": { "name": "Henryk Arctowski Station", "nation": "Poland", "status": "Open", "facility_type": "Station", "latitude": -62.15, "longitude": -58.467, "activity_type": "permanent_station", "duration": "permanent", "year": 2024, "source": "COMNAP Antarctic Facilities List v3.5.0 (2024)", "citation": "COMNAP (2024). Antarctic Facilities List, Version 3.5.0. Council of Managers of National Antarctic Programs. https://www.comnap.aq/antarctic-facilities-information" }, "geometry": { "type": "Point", "coordinates": [ -58.467, -62.15 ] } },
{ "type": "Feature", "properties": { "name": "Wroclaw Station", "nation": "Poland", "status": "Open", "facility_type": "Summer", "latitude": -62.15, "longitude": -58.467, "activity_type": "summer_facility", "duration": "transient", "year": 2024, "source": "COMNAP Antarctic Facilities List v3.5.0 (2024)", "citation": "COMNAP (2024). Antarctic Facilities List, Version 3.5.0. Council of Managers of National Antarctic Programs. https://www.comnap.aq/antarctic-facilities-information" }, "geometry": { "type": "Point", "coordinates": [ -58.467, -62.15 ] } },
{ "type": "Feature", "properties": { "name": "Vernadsky Research Base", "nation": "Ukraine", "status": "Open", "facility_type": "Station", "latitude": -65.247, "longitude": -64.253, "activity_type": "permanent_station", "duration": "permanent", "year": 2024, "source": "COMNAP Antarctic Facilities List v3.5.0 (2024)", "citation": "COMNAP (2024). Antarctic Facilities List, Version 3.5.0. Council of Managers of National Antarctic Programs. https://www.comnap.aq/antarctic-facilities-information" }, "geometry": { "type": "Point", "coordinates": [ -64.253, -65.247 ] } },
{ "type": "Feature", "properties": { "name": "Faraday/Vernadsky", "nation": "Ukraine", "status": "Open", "facility_type": "Station", "latitude": -65.247, "longitude": -64.253, "activity_type": "permanent_station", "duration": "permanent", "year": 2024, "source": "COMNAP Antarctic Facilities List v3.5.0 (2024)", "citation": "COMNAP (2024). Antarctic Facilities List, Version 3.5.0. Council of Managers of National Antarctic Programs. https://www.comnap.aq/antarctic-facilities-information" }, "geometry": { "type": "Point", "coordinates": [ -64.253, -65.247 ] } },
{ "type": "Feature", "properties": { "name": "Law-Racovita-Negoita Station", "nation": "Romania/Australia", "status": "Open", "facility_type": "Summer", "latitude": -69.383, "longitude": 76.383, "activity_type": "summer_facility", "duration": "transient", "year": 2024, "source": "COMNAP Antarctic Facilities List v3.5.0 (2024)", "citation": "COMNAP (2024). Antarctic Facilities List, Version 3.5.0. Council of Managers of National Antarctic Programs. https://www.comnap.aq/antarctic-facilities-information" }, "geometry": { "type": "Point", "coordinates": [ 76.383, -69.383 ] } },
{ "type": "Feature", "properties": { "name": "Larsemann Hills Station", "nation": "China", "status": "Open", "facility_type": "Summer", "latitude": -69.383, "longitude": 76.383, "activity_type": "summer_facility", "duration": "transient", "year": 2024, "source": "COMNAP Antarctic Facilities List v3.5.0 (2024)", "citation": "COMNAP (2024). Antarctic Facilities List, Version 3.5.0. Council of Managers of National Antarctic Programs. https://www.comnap.aq/antarctic-facilities-information" }, "geometry": { "type": "Point", "coordinates": [ 76.383, -69.383 ] } },
{ "type": "Feature", "properties": { "name": "Comandante Ferraz Station", "nation": "Brazil", "status": "Open", "facility_type": "Station", "latitude": -62.083, "longitude": -58.383, "activity_type": "permanent_station", "duration": "permanent", "year": 2024, "source": "COMNAP Antarctic Facilities List v3.5.0 (2024)", "citation": "COMNAP (2024). Antarctic Facilities List, Version 3.5.0. Council of Managers of National Antarctic Programs. https://www.comnap.aq/antarctic-facilities-information" }, "geometry": { "type": "Point", "coordinates": [ -58.383, -62.083 ] } },
{ "type": "Feature", "properties": { "name": "Captain Arturo Prat Station", "nation": "Chile", "status": "Open", "facility_type": "Station", "latitude": -62.5, "longitude": -59.683, "activity_type": "permanent_station", "duration": "permanent", "year": 2024, "source": "COMNAP Antarctic Facilities List v3.5.0 (2024)", "citation": "COMNAP (2024). Antarctic Facilities List, Version 3.5.0. Council of Managers of National Antarctic Programs. https://www.comnap.aq/antarctic-facilities-information" }, "geometry": { "type": "Point", "coordinates": [ -59.683, -62.5 ] } },
{ "type": "Feature", "properties": { "name": "Gondwana Station", "nation": "Germany", "status": "Open", "facility_type": "Summer", "latitude": -74.633, "longitude": 164.2, "activity_type": "summer_facility", "duration": "transient", "year": 2024, "source": "COMNAP Antarctic Facilities List v3.5.0 (2024)", "citation": "COMNAP (2024). Antarctic Facilities List, Version 3.5.0. Council of Managers of National Antarctic Programs. https://www.comnap.aq/antarctic-facilities-information" }, "geometry": { "type": "Point", "coordinates": [ 164.2, -74.633 ] } },
{ "type": "Feature", "properties": { "name": "Peter I Island Station", "nation": "Norway", "status": "Open", "facility_type": "Summer", "latitude": -68.783, "longitude": -90.583, "activity_type": "summer_facility", "duration": "transient", "year": 2024, "source": "COMNAP Antarctic Facilities List v3.5.0 (2024)", "citation": "COMNAP (2024). Antarctic Facilities List, Version 3.5.0. Council of Managers of National Antarctic Programs. https://www.comnap.aq/antarctic-facilities-information" }, "geometry": { "type": "Point", "coordinates": [ -90.583, -68.783 ] } },
{ "type": "Feature", "properties": { "name": "Svea Station", "nation": "Sweden", "status": "Open", "facility_type": "Summer", "latitude": -74.583, "longitude": -11.217, "activity_type": "summer_facility", "duration": "transient", "year": 2024, "source": "COMNAP Antarctic Facilities List v3.5.0 (2024)", "citation": "COMNAP (2024). Antarctic Facilities List, Version 3.5.0. Council of Managers of National Antarctic Programs. https://www.comnap.aq/antarctic-facilities-information" }, "geometry": { "type": "Point", "coordinates": [ -11.217, -74.583 ] } },
{ "type": "Feature", "properties": { "name": "Wasa Station", "nation": "Sweden", "status": "Open", "facility_type": "Summer", "latitude": -73.033, "longitude": -13.417, "activity_type": "summer_facility", "duration": "transient", "year": 2024, "source": "COMNAP Antarctic Facilities List v3.5.0 (2024)", "citation": "COMNAP (2024). Antarctic Facilities List, Version 3.5.0. Council of Managers of National Antarctic Programs. https://www.comnap.aq/antarctic-facilities-information" }, "geometry": { "type": "Point", "coordinates": [ -13.417, -73.033 ] } },
{ "type": "Feature", "properties": { "name": "Aboa Station", "nation": "Finland", "status": "Open", "facility_type": "Summer", "latitude": -73.05, "longitude": -13.417, "activity_type": "summer_facility", "duration": "transient", "year": 2024, "source": "COMNAP Antarctic Facilities List v3.5.0 (2024)", "citation": "COMNAP (2024). Antarctic Facilities List, Version 3.5.0. Council of Managers of National Antarctic Programs. https://www.comnap.aq/antarctic-facilities-information" }, "geometry": { "type": "Point", "coordinates": [ -13.417, -73.05 ] } },
{ "type": "Feature", "properties": { "name": "Dakshin Gangotri", "nation": "India", "status": "Temporarily Closed", "facility_type": "Station", "latitude": -70.083, "longitude": 12.0, "activity_type": "permanent_station", "duration": "permanent", "year": 2024, "source": "COMNAP Antarctic Facilities List v3.5.0 (2024)", "citation": "COMNAP (2024). Antarctic Facilities List, Version 3.5.0. Council of Managers of National Antarctic Programs. https://www.comnap.aq/antarctic-facilities-information" }, "geometry": { "type": "Point", "coordinates": [ 12.0, -70.083 ] } },
{ "type": "Feature", "properties": { "name": "Machu Picchu Station", "nation": "Peru", "status": "Open", "facility_type": "Summer", "latitude": -62.09, "longitude": -58.47, "activity_type": "summer_facility", "duration": "transient", "year": 2024, "source": "COMNAP Antarctic Facilities List v3.5.0 (2024)", "citation": "COMNAP (2024). Antarctic Facilities List, Version 3.5.0. Council of Managers of National Antarctic Programs. https://www.comnap.aq/antarctic-facilities-information" }, "geometry": { "type": "Point", "coordinates": [ -58.47, -62.09 ] } },
{ "type": "Feature", "properties": { "name": "Ariel Andres Belloso Station", "nation": "Ecuador", "status": "Open", "facility_type": "Summer", "latitude": -62.467, "longitude": -59.733, "activity_type": "summer_facility", "duration": "transient", "year": 2024, "source": "COMNAP Antarctic Facilities List v3.5.0 (2024)", "citation": "COMNAP (2024). Antarctic Facilities List, Version 3.5.0. Council of Managers of National Antarctic Programs. https://www.comnap.aq/antarctic-facilities-information" }, "geometry": { "type": "Point", "coordinates": [ -59.733, -62.467 ] } },
{ "type": "Feature", "properties": { "name": "INACH Base Glaciar Union", "nation": "Chile", "status": "Open", "facility_type": "Summer", "latitude": -79.767, "longitude": -82.867, "activity_type": "summer_facility", "duration": "transient", "year": 2024, "source": "COMNAP Antarctic Facilities List v3.5.0 (2024)", "citation": "COMNAP (2024). Antarctic Facilities List, Version 3.5.0. Council of Managers of National Antarctic Programs. https://www.comnap.aq/antarctic-facilities-information" }, "geometry": { "type": "Point", "coordinates": [ -82.867, -79.767 ] } },
{ "type": "Feature", "properties": { "name": "Fossil Bluff", "nation": "UK", "status": "Open", "facility_type": "Summer", "latitude": -71.333, "longitude": -68.283, "activity_type": "summer_facility", "duration": "transient", "year": 2024, "source": "COMNAP Antarctic Facilities List v3.5.0 (2024)", "citation": "COMNAP (2024). Antarctic Facilities List, Version 3.5.0. Council of Managers of National Antarctic Programs. https://www.comnap.aq/antarctic-facilities-information" }, "geometry": { "type": "Point", "coordinates": [ -68.283, -71.333 ] } },
{ "type": "Feature", "properties": { "name": "Sky Blu", "nation": "UK", "status": "Open", "facility_type": "Summer", "latitude": -74.85, "longitude": -71.567, "activity_type": "summer_facility", "duration": "transient", "year": 2024, "source": "COMNAP Antarctic Facilities List v3.5.0 (2024)", "citation": "COMNAP (2024). Antarctic Facilities List, Version 3.5.0. Council of Managers of National Antarctic Programs. https://www.comnap.aq/antarctic-facilities-information" }, "geometry": { "type": "Point", "coordinates": [ -71.567, -74.85 ] } },
{ "type": "Feature", "properties": { "name": "Rothera Point field huts", "nation": "UK", "status": "Open", "facility_type": "Summer", "latitude": -67.567, "longitude": -68.125, "activity_type": "summer_facility", "duration": "transient", "year": 2024, "source": "COMNAP Antarctic Facilities List v3.5.0 (2024)", "citation": "COMNAP (2024). Antarctic Facilities List, Version 3.5.0. Council of Managers of National Antarctic Programs. https://www.comnap.aq/antarctic-facilities-information" }, "geometry": { "type": "Point", "coordinates": [ -68.125, -67.567 ] } }
]
}
