{
  "type": "FeatureCollection",
  "features": [
    {
      "type": "Feature",
      "properties": {"name": "McMurdo Traverse", "activity_type": "traverse", "duration": "transient", "year": 2023},
      "geometry": {
        "type": "LineString",
        "coordinates": [[166.5, -77.9], [167.0, -78.0], [167.5, -78.2]]
      }
    },
    {
      "type": "Feature",
      "properties": {"name": "Peninsula Route", "activity_type": "linear_corridor", "duration": "transient", "year": 2022},
      "geometry": {
        "type": "LineString",
        "coordinates": [[-64.0, -64.5], [-64.5, -65.0], [-65.0, -65.5]]
      }
    }
  ]
}
